{
  "type": "FeatureCollection",
  "features": [
    {
      "type": "Feature",
      "properties": {
        "norad_id": 24946,
        "name": "IRIDIUM 33",
        "group": "iridium-33-debris",
        "lat": -74.60710136358921,
        "lon": -102.46599382913854,
        "alt_km": 781.9115902012818,
        "timestamp": "2025-12-22T04:03:39.553464+00:00",
        "meta_object_name": "IRIDIUM 33",
        "meta_object_id": "1997-051C",
        "meta_epoch": "2025-12-21T16:50:08.875104",
        "meta_mean_motion": 14.35043089,
        "meta_eccentricity": 0.0008106,
        "meta_inclination": 86.3862,
        "meta_ra_of_asc_node": 64.4599,
        "meta_arg_of_pericenter": 170.6485,
        "meta_mean_anomaly": 189.4863,
        "meta_ephemeris_type": 0,
        "meta_classification_type": "U",
        "meta_norad_cat_id": 24946,
        "meta_element_set_no": 999,
        "meta_rev_at_epoch": 47963,
        "meta_bstar": 9.0806e-05,
        "meta_mean_motion_dot": 2.78e-06,
        "meta_mean_motion_ddot": 0,
        "tle_line1": "1 24946U 97051C   25355.70149161  .00000278  00000+0  90806-4 0  9999",
        "tle_line2": "2 24946  86.3862  64.4599 0008106 170.6485 189.4863 14.35043089479638"
      },
      "geometry": {
        "type": "Point",
        "coordinates": [
          -102.46599382913854,
          -74.60710136358921
        ]
      }
    },
    {
      "type": "Feature",
      "properties": {
        "norad_id": 33773,
        "name": "IRIDIUM 33 DEB",
        "group": "iridium-33-debris",
        "lat": 49.02285584077098,
        "lon": -127.56273690867435,
        "alt_km": 734.1914342126956,
        "timestamp": "2025-12-22T04:03:39.553492+00:00",
        "meta_object_name": "IRIDIUM 33 DEB",
        "meta_object_id": "1997-051L",
        "meta_epoch": "2025-12-21T14:08:46.576608",
        "meta_mean_motion": 14.43274227,
        "meta_eccentricity": 0.0013137,
        "meta_inclination": 86.4001,
        "meta_ra_of_asc_node": 56.8393,
        "meta_arg_of_pericenter": 120.8294,
        "meta_mean_anomaly": 239.4201,
        "meta_ephemeris_type": 0,
        "meta_classification_type": "U",
        "meta_norad_cat_id": 33773,
        "meta_element_set_no": 999,
        "meta_rev_at_epoch": 88475,
        "meta_bstar": 0.00023086,
        "meta_mean_motion_dot": 7.98e-06,
        "meta_mean_motion_ddot": 0,
        "tle_line1": "1 33773U 97051L   25355.58942797  .00000798  00000+0  23086-3 0  9991",
        "tle_line2": "2 33773  86.4001  56.8393 0013137 120.8294 239.4201 14.43274227884758"
      },
      "geometry": {
        "type": "Point",
        "coordinates": [
          -127.56273690867435,
          49.02285584077098
        ]
      }
    },
    {
      "type": "Feature",
      "properties": {
        "norad_id": 33775,
        "name": "IRIDIUM 33 DEB",
        "group": "iridium-33-debris",
        "lat": 26.12426119962278,
        "lon": -136.26004970735778,
        "alt_km": 743.2052986382532,
        "timestamp": "2025-12-22T04:03:39.553507+00:00",
        "meta_object_name": "IRIDIUM 33 DEB",
        "meta_object_id": "1997-051N",
        "meta_epoch": "2025-12-21T14:37:50.869056",
        "meta_mean_motion": 14.41485837,
        "meta_eccentricity": 0.0015088,
        "meta_inclination": 86.3627,
        "meta_ra_of_asc_node": 45.7665,
        "meta_arg_of_pericenter": 128.1119,
        "meta_mean_anomaly": 3.4564,
        "meta_ephemeris_type": 0,
        "meta_classification_type": "U",
        "meta_norad_cat_id": 33775,
        "meta_element_set_no": 999,
        "meta_rev_at_epoch": 88268,
        "meta_bstar": 0.00024418,
        "meta_mean_motion_dot": 8.13e-06,
        "meta_mean_motion_ddot": 0,
        "tle_line1": "1 33775U 97051N   25355.60961654  .00000813  00000+0  24418-3 0  9997",
        "tle_line2": "2 33775  86.3627  45.7665 0015088 128.1119   3.4564 14.41485837882686"
      },
      "geometry": {
        "type": "Point",
        "coordinates": [
          -136.26004970735778,
          26.12426119962278
        ]
      }
    },
    {
      "type": "Feature",
      "properties": {
        "norad_id": 33776,
        "name": "IRIDIUM 33 DEB",
        "group": "iridium-33-debris",
        "lat": -84.76265863494432,
        "lon": 33.48962680002706,
        "alt_km": 776.1290176473858,
        "timestamp": "2025-12-22T04:03:39.553520+00:00",
        "meta_object_name": "IRIDIUM 33 DEB",
        "meta_object_id": "1997-051P",
        "meta_epoch": "2025-12-21T19:01:01.614720",
        "meta_mean_motion": 14.38249967,
        "meta_eccentricity": 0.001537,
        "meta_inclination": 86.4034,
        "meta_ra_of_asc_node": 76.9743,
        "meta_arg_of_pericenter": 161.4271,
        "meta_mean_anomaly": 322.3629,
        "meta_ephemeris_type": 0,
        "meta_classification_type": "U",
        "meta_norad_cat_id": 33776,
        "meta_element_set_no": 999,
        "meta_rev_at_epoch": 88212,
        "meta_bstar": 0.00022511,
        "meta_mean_motion_dot": 7.05e-06,
        "meta_mean_motion_ddot": 0,
        "tle_line1": "1 33776U 97051P   25355.79237980  .00000705  00000+0  22511-3 0  9998",
        "tle_line2": "2 33776  86.4034  76.9743 0015370 161.4271 322.3629 14.38249967882128"
      },
      "geometry": {
        "type": "Point",
        "coordinates": [
          33.48962680002706,
          -84.76265863494432
        ]
      }
    },
    {
      "type": "Feature",
      "properties": {
        "norad_id": 33777,
        "name": "IRIDIUM 33 DEB",
        "group": "iridium-33-debris",
        "lat": -68.42806508297156,
        "lon": 21.88006846515039,
        "alt_km": 714.0169809031531,
        "timestamp": "2025-12-22T04:03:39.553532+00:00",
        "meta_object_name": "IRIDIUM 33 DEB",
        "meta_object_id": "1997-051Q",
        "meta_epoch": "2025-12-21T20:07:38.898624",
        "meta_mean_motion": 14.5567097,
        "meta_eccentricity": 0.0005932,
        "meta_inclination": 86.3773,
        "meta_ra_of_asc_node": 31.2449,
        "meta_arg_of_pericenter": 209.5407,
        "meta_mean_anomaly": 150.5467,
        "meta_ephemeris_type": 0,
        "meta_classification_type": "U",
        "meta_norad_cat_id": 33777,
        "meta_element_set_no": 999,
        "meta_rev_at_epoch": 88666,
        "meta_bstar": 0.00060746,
        "meta_mean_motion_dot": 2.674e-05,
        "meta_mean_motion_ddot": 0,
        "tle_line1": "1 33777U 97051Q   25355.83864466  .00002674  00000+0  60746-3 0  9998",
        "tle_line2": "2 33777  86.3773  31.2449 0005932 209.5407 150.5467 14.55670970886668"
      },
      "geometry": {
        "type": "Point",
        "coordinates": [
          21.88006846515039,
          -68.42806508297156
        ]
      }
    },
    {
      "type": "Feature",
      "properties": {
        "norad_id": 33850,
        "name": "IRIDIUM 33 DEB",
        "group": "iridium-33-debris",
        "lat": 22.241106219571037,
        "lon": -155.37481299724323,
        "alt_km": 742.7085974288657,
        "timestamp": "2025-12-22T04:03:39.553543+00:00",
        "meta_object_name": "IRIDIUM 33 DEB",
        "meta_object_id": "1997-051T",
        "meta_epoch": "2025-12-21T12:54:25.325568",
        "meta_mean_motion": 14.4216572,
        "meta_eccentricity": 0.00130293,
        "meta_inclination": 86.3408,
        "meta_ra_of_asc_node": 26.3962,
        "meta_arg_of_pericenter": 134.7554,
        "meta_mean_anomaly": 346.6938,
        "meta_ephemeris_type": 0,
        "meta_classification_type": "U",
        "meta_norad_cat_id": 33850,
        "meta_element_set_no": 999,
        "meta_rev_at_epoch": 88279,
        "meta_bstar": 0.00030357281,
        "meta_mean_motion_dot": 1.019e-05,
        "meta_mean_motion_ddot": 0,
        "tle_line1": "1 33850U 97051T   25355.53779312  .00001019  00000+0  30357-3 0  9999",
        "tle_line2": "2 33850  86.3408  26.3962 0013029 134.7554 346.6938 14.42165720882797"
      },
      "geometry": {
        "type": "Point",
        "coordinates": [
          -155.37481299724323,
          22.241106219571037
        ]
      }
    },
    {
      "type": "Feature",
      "properties": {
        "norad_id": 33853,
        "name": "IRIDIUM 33 DEB",
        "group": "iridium-33-debris",
        "lat": 20.801118355894566,
        "lon": 164.15312417939344,
        "alt_km": 793.6300069468989,
        "timestamp": "2025-12-22T04:03:39.553555+00:00",
        "meta_object_name": "IRIDIUM 33 DEB",
        "meta_object_id": "1997-051W",
        "meta_epoch": "2025-12-20T22:14:35.888928",
        "meta_mean_motion": 13.9910315,
        "meta_eccentricity": 0.0207332,
        "meta_inclination": 85.9999,
        "meta_ra_of_asc_node": 346.2208,
        "meta_arg_of_pericenter": 210.5493,
        "meta_mean_anomaly": 176.3282,
        "meta_ephemeris_type": 0,
        "meta_classification_type": "U",
        "meta_norad_cat_id": 33853,
        "meta_element_set_no": 999,
        "meta_rev_at_epoch": 85460,
        "meta_bstar": 0.0010168,
        "meta_mean_motion_dot": 1.786e-05,
        "meta_mean_motion_ddot": 0,
        "tle_line1": "1 33853U 97051W   25354.92680427  .00001786  00000+0  10168-2 0  9990",
        "tle_line2": "2 33853  85.9999 346.2208 0207332 210.5493 176.3282 13.99103150854603"
      },
      "geometry": {
        "type": "Point",
        "coordinates": [
          164.15312417939344,
          20.801118355894566
        ]
      }
    }
  ]
}